STARLINK-31605          
1 59348U 24060A   26068.54271983 -.00001739  00000+0 -53684-4 0  9993
2 59348  43.0019 250.0231 0001137 263.1543  96.9180 15.27577355110100
FLOCK 4G-8              
1 62613U 25009E   26068.72381419  .00013559  00000+0  50438-3 0  9996
2 62613  97.4045 151.2834 0003050 315.2538  44.8455 15.27623414 63721
