[{"OBJECT_NAME":"STARLINK-31605","OBJECT_ID":"2024-060A","EPOCH":"2026-03-09T13:01:30.993312","MEAN_MOTION":15.27577355,"ECCENTRICITY":0.00011371,"INCLINATION":43.0019,"RA_OF_ASC_NODE":250.0231,"ARG_OF_PERICENTER":263.1543,"MEAN_ANOMALY":96.918,"EPHEMERIS_TYPE":0,"CLASSIFICATION_TYPE":"U","NORAD_CAT_ID":59348,"ELEMENT_SET_NO":999,"REV_AT_EPOCH":11010,"BSTAR":-5.3683713e-5,"MEAN_MOTION_DOT":-1.739e-5,"MEAN_MOTION_DDOT":0},{"OBJECT_NAME":"FLOCK 4G-8","OBJECT_ID":"2025-009E","EPOCH":"2026-03-09T17:22:17.546016","MEAN_MOTION":15.27623414,"ECCENTRICITY":0.00030503,"INCLINATION":97.4045,"RA_OF_ASC_NODE":151.2834,"ARG_OF_PERICENTER":315.2538,"MEAN_ANOMALY":44.8455,"EPHEMERIS_TYPE":0,"CLASSIFICATION_TYPE":"U","NORAD_CAT_ID":62613,"ELEMENT_SET_NO":999,"REV_AT_EPOCH":6372,"BSTAR":0.0005043806,"MEAN_MOTION_DOT":0.00013559,"MEAN_MOTION_DDOT":0}]
